STARLINK-36999          
1 68268U 26055G   26095.83336806  .00083534  00000+0  42349-3 0  9994
2 68268  53.1584 201.2123 0000979  93.9165 328.4668 15.80831086  3995
STARLINK-36962          
1 68269U 26055H   26095.83336806  .00086879  00000+0  44028-3 0  9996
2 68269  53.1584 201.2034 0000704  83.4680 343.1936 15.80824202  3993
STARLINK-37028          
1 68270U 26055J   26095.83336806 -.00013788  00000+0 -66556-4 0  9990
2 68270  53.1582 201.1854 0000400  42.0617  33.1495 15.80834399  3990
STARLINK-37029          
1 68271U 26055K   26095.83336806  .00096350  00000+0  48743-3 0  9992
2 68271  53.1582 201.1947 0001714  41.2736  29.6554 15.80820281  3997
STARLINK-36974          
1 68272U 26055L   26095.83336806  .00210132  00000+0  10497-2 0  9993
2 68272  53.1582 201.1763 0001855  65.4321  14.1132 15.80722577  3998
STARLINK-37019          
1 68273U 26055M   26095.83336806  .00109986  00000+0  55504-3 0  9997
2 68273  53.1583 201.1671 0001626  96.6810 347.0605 15.80820220  3990
STARLINK-37129          
1 68274U 26055N   26095.83336806  .00112213  00000+0  56643-3 0  9990
2 68274  53.1583 201.1582 0001824  43.3147  44.7098 15.80805803  3991
STARLINK-37123          
1 68275U 26055P   26095.83336806  .00110550  00000+0  55776-3 0  9999
2 68275  53.1582 201.1500 0001844  94.2751 358.0108 15.80822733  3993
STARLINK-37125          
1 68276U 26055Q   26095.83336806  .00088826  00000+0  44998-3 0  9994
2 68276  53.1582 201.1408 0001000  93.2557   3.3009 15.80823327  3998
STARLINK-36989          
1 68277U 26055R   26095.83336806  .00101152  00000+0  51166-3 0  9998
2 68277  53.1619 201.1142 0000643 123.6356 345.7586 15.80804120  3995
STARLINK-36982          
1 68278U 26055S   26095.83336806  .00115330  00000+0  58191-3 0  9997
2 68278  53.1583 201.1238 0000666  54.3061  50.8097 15.80804663  3993
STARLINK-36934          
1 68279U 26055T   26095.83336806  .00109968  00000+0  55509-3 0  9998
2 68279  53.1584 201.1327 0001281  52.3160  48.5185 15.80815247  3998
STARLINK-37070          
1 68280U 26055U   26095.83336806  .00115210  00000+0  58162-3 0  9995
2 68280  53.1582 201.1056 0000628 131.1709 342.4998 15.80793196  3992
STARLINK-37134          
1 68281U 26055V   26095.83336806  .00061916  00000+0  31569-3 0  9991
2 68281  53.1584 201.0872 0000895  66.1271  56.0670 15.80824686  3991
STARLINK-37160          
1 68282U 26055W   26095.83336806  .00073884  00000+0  37536-3 0  9999
2 68282  53.1584 201.0973 0000937  77.2442  40.6690 15.80833364  3998
STARLINK-37124          
1 68283U 26055X   26095.83336806  .00086247  00000+0  43716-3 0  9994
2 68283  53.1583 201.0794 0001809  35.6694  90.7971 15.80821827  3994
STARLINK-37159          
1 68284U 26055Y   26095.83336806  .00110788  00000+0  55930-3 0  9994
2 68284  53.1584 201.0705 0000800  32.6562  98.0862 15.80809427  3991
