[{"OBJECT_NAME":"STARLINK-36999","OBJECT_ID":"2026-055G","EPOCH":"2026-04-05T20:00:03.000384","MEAN_MOTION":15.80831086,"ECCENTRICITY":9.79e-5,"INCLINATION":53.1584,"RA_OF_ASC_NODE":201.2123,"ARG_OF_PERICENTER":93.9165,"MEAN_ANOMALY":328.4668,"EPHEMERIS_TYPE":0,"CLASSIFICATION_TYPE":"U","NORAD_CAT_ID":68268,"ELEMENT_SET_NO":999,"REV_AT_EPOCH":399,"BSTAR":0.00042349,"MEAN_MOTION_DOT":0.00083534,"MEAN_MOTION_DDOT":0},{"OBJECT_NAME":"STARLINK-36962","OBJECT_ID":"2026-055H","EPOCH":"2026-04-05T20:00:03.000384","MEAN_MOTION":15.80824202,"ECCENTRICITY":7.04e-5,"INCLINATION":53.1584,"RA_OF_ASC_NODE":201.2034,"ARG_OF_PERICENTER":83.468,"MEAN_ANOMALY":343.1936,"EPHEMERIS_TYPE":0,"CLASSIFICATION_TYPE":"U","NORAD_CAT_ID":68269,"ELEMENT_SET_NO":999,"REV_AT_EPOCH":399,"BSTAR":0.00044028,"MEAN_MOTION_DOT":0.00086879,"MEAN_MOTION_DDOT":0},{"OBJECT_NAME":"STARLINK-37028","OBJECT_ID":"2026-055J","EPOCH":"2026-04-05T20:00:03.000384","MEAN_MOTION":15.80834399,"ECCENTRICITY":4.0e-5,"INCLINATION":53.1582,"RA_OF_ASC_NODE":201.1854,"ARG_OF_PERICENTER":42.0617,"MEAN_ANOMALY":33.1495,"EPHEMERIS_TYPE":0,"CLASSIFICATION_TYPE":"U","NORAD_CAT_ID":68270,"ELEMENT_SET_NO":999,"REV_AT_EPOCH":399,"BSTAR":-6.6556e-5,"MEAN_MOTION_DOT":-0.00013788,"MEAN_MOTION_DDOT":0},{"OBJECT_NAME":"STARLINK-37029","OBJECT_ID":"2026-055K","EPOCH":"2026-04-05T20:00:03.000384","MEAN_MOTION":15.80820281,"ECCENTRICITY":0.0001714,"INCLINATION":53.1582,"RA_OF_ASC_NODE":201.1947,"ARG_OF_PERICENTER":41.2736,"MEAN_ANOMALY":29.6554,"EPHEMERIS_TYPE":0,"CLASSIFICATION_TYPE":"U","NORAD_CAT_ID":68271,"ELEMENT_SET_NO":999,"REV_AT_EPOCH":399,"BSTAR":0.00048743,"MEAN_MOTION_DOT":0.0009635,"MEAN_MOTION_DDOT":0},{"OBJECT_NAME":"STARLINK-36974","OBJECT_ID":"2026-055L","EPOCH":"2026-04-05T20:00:03.000384","MEAN_MOTION":15.80722577,"ECCENTRICITY":0.0001855,"INCLINATION":53.1582,"RA_OF_ASC_NODE":201.1763,"ARG_OF_PERICENTER":65.4321,"MEAN_ANOMALY":14.1132,"EPHEMERIS_TYPE":0,"CLASSIFICATION_TYPE":"U","NORAD_CAT_ID":68272,"ELEMENT_SET_NO":999,"REV_AT_EPOCH":399,"BSTAR":0.0010497,"MEAN_MOTION_DOT":0.00210132,"MEAN_MOTION_DDOT":0},{"OBJECT_NAME":"STARLINK-37019","OBJECT_ID":"2026-055M","EPOCH":"2026-04-05T20:00:03.000384","MEAN_MOTION":15.8082022,"ECCENTRICITY":0.0001626,"INCLINATION":53.1583,"RA_OF_ASC_NODE":201.1671,"ARG_OF_PERICENTER":96.681,"MEAN_ANOMALY":347.0605,"EPHEMERIS_TYPE":0,"CLASSIFICATION_TYPE":"U","NORAD_CAT_ID":68273,"ELEMENT_SET_NO":999,"REV_AT_EPOCH":399,"BSTAR":0.00055504,"MEAN_MOTION_DOT":0.00109986,"MEAN_MOTION_DDOT":0},{"OBJECT_NAME":"STARLINK-37129","OBJECT_ID":"2026-055N","EPOCH":"2026-04-05T20:00:03.000384","MEAN_MOTION":15.80805803,"ECCENTRICITY":0.0001824,"INCLINATION":53.1583,"RA_OF_ASC_NODE":201.1582,"ARG_OF_PERICENTER":43.3147,"MEAN_ANOMALY":44.7098,"EPHEMERIS_TYPE":0,"CLASSIFICATION_TYPE":"U","NORAD_CAT_ID":68274,"ELEMENT_SET_NO":999,"REV_AT_EPOCH":399,"BSTAR":0.00056643,"MEAN_MOTION_DOT":0.00112213,"MEAN_MOTION_DDOT":0},{"OBJECT_NAME":"STARLINK-37123","OBJECT_ID":"2026-055P","EPOCH":"2026-04-05T20:00:03.000384","MEAN_MOTION":15.80822733,"ECCENTRICITY":0.0001844,"INCLINATION":53.1582,"RA_OF_ASC_NODE":201.15,"ARG_OF_PERICENTER":94.2751,"MEAN_ANOMALY":358.0108,"EPHEMERIS_TYPE":0,"CLASSIFICATION_TYPE":"U","NORAD_CAT_ID":68275,"ELEMENT_SET_NO":999,"REV_AT_EPOCH":399,"BSTAR":0.00055776,"MEAN_MOTION_DOT":0.0011055,"MEAN_MOTION_DDOT":0},{"OBJECT_NAME":"STARLINK-37125","OBJECT_ID":"2026-055Q","EPOCH":"2026-04-05T20:00:03.000384","MEAN_MOTION":15.80823327,"ECCENTRICITY":0.0001,"INCLINATION":53.1582,"RA_OF_ASC_NODE":201.1408,"ARG_OF_PERICENTER":93.2557,"MEAN_ANOMALY":3.3009,"EPHEMERIS_TYPE":0,"CLASSIFICATION_TYPE":"U","NORAD_CAT_ID":68276,"ELEMENT_SET_NO":999,"REV_AT_EPOCH":399,"BSTAR":0.00044998,"MEAN_MOTION_DOT":0.00088826,"MEAN_MOTION_DDOT":0},{"OBJECT_NAME":"STARLINK-36989","OBJECT_ID":"2026-055R","EPOCH":"2026-04-05T20:00:03.000384","MEAN_MOTION":15.8080412,"ECCENTRICITY":6.43e-5,"INCLINATION":53.1619,"RA_OF_ASC_NODE":201.1142,"ARG_OF_PERICENTER":123.6356,"MEAN_ANOMALY":345.7586,"EPHEMERIS_TYPE":0,"CLASSIFICATION_TYPE":"U","NORAD_CAT_ID":68277,"ELEMENT_SET_NO":999,"REV_AT_EPOCH":399,"BSTAR":0.00051166,"MEAN_MOTION_DOT":0.00101152,"MEAN_MOTION_DDOT":0},{"OBJECT_NAME":"STARLINK-36982","OBJECT_ID":"2026-055S","EPOCH":"2026-04-05T20:00:03.000384","MEAN_MOTION":15.80804663,"ECCENTRICITY":6.66e-5,"INCLINATION":53.1583,"RA_OF_ASC_NODE":201.1238,"ARG_OF_PERICENTER":54.3061,"MEAN_ANOMALY":50.8097,"EPHEMERIS_TYPE":0,"CLASSIFICATION_TYPE":"U","NORAD_CAT_ID":68278,"ELEMENT_SET_NO":999,"REV_AT_EPOCH":399,"BSTAR":0.00058191,"MEAN_MOTION_DOT":0.0011533,"MEAN_MOTION_DDOT":0},{"OBJECT_NAME":"STARLINK-36934","OBJECT_ID":"2026-055T","EPOCH":"2026-04-05T20:00:03.000384","MEAN_MOTION":15.80815247,"ECCENTRICITY":0.0001281,"INCLINATION":53.1584,"RA_OF_ASC_NODE":201.1327,"ARG_OF_PERICENTER":52.316,"MEAN_ANOMALY":48.5185,"EPHEMERIS_TYPE":0,"CLASSIFICATION_TYPE":"U","NORAD_CAT_ID":68279,"ELEMENT_SET_NO":999,"REV_AT_EPOCH":399,"BSTAR":0.00055509,"MEAN_MOTION_DOT":0.00109968,"MEAN_MOTION_DDOT":0},{"OBJECT_NAME":"STARLINK-37070","OBJECT_ID":"2026-055U","EPOCH":"2026-04-05T20:00:03.000384","MEAN_MOTION":15.80793196,"ECCENTRICITY":6.28e-5,"INCLINATION":53.1582,"RA_OF_ASC_NODE":201.1056,"ARG_OF_PERICENTER":131.1709,"MEAN_ANOMALY":342.4998,"EPHEMERIS_TYPE":0,"CLASSIFICATION_TYPE":"U","NORAD_CAT_ID":68280,"ELEMENT_SET_NO":999,"REV_AT_EPOCH":399,"BSTAR":0.00058162,"MEAN_MOTION_DOT":0.0011521,"MEAN_MOTION_DDOT":0},{"OBJECT_NAME":"STARLINK-37134","OBJECT_ID":"2026-055V","EPOCH":"2026-04-05T20:00:03.000384","MEAN_MOTION":15.80824686,"ECCENTRICITY":8.95e-5,"INCLINATION":53.1584,"RA_OF_ASC_NODE":201.0872,"ARG_OF_PERICENTER":66.1271,"MEAN_ANOMALY":56.067,"EPHEMERIS_TYPE":0,"CLASSIFICATION_TYPE":"U","NORAD_CAT_ID":68281,"ELEMENT_SET_NO":999,"REV_AT_EPOCH":399,"BSTAR":0.00031569,"MEAN_MOTION_DOT":0.00061916,"MEAN_MOTION_DDOT":0},{"OBJECT_NAME":"STARLINK-37160","OBJECT_ID":"2026-055W","EPOCH":"2026-04-05T20:00:03.000384","MEAN_MOTION":15.80833364,"ECCENTRICITY":9.37e-5,"INCLINATION":53.1584,"RA_OF_ASC_NODE":201.0973,"ARG_OF_PERICENTER":77.2442,"MEAN_ANOMALY":40.669,"EPHEMERIS_TYPE":0,"CLASSIFICATION_TYPE":"U","NORAD_CAT_ID":68282,"ELEMENT_SET_NO":999,"REV_AT_EPOCH":399,"BSTAR":0.00037536,"MEAN_MOTION_DOT":0.00073884,"MEAN_MOTION_DDOT":0},{"OBJECT_NAME":"STARLINK-37124","OBJECT_ID":"2026-055X","EPOCH":"2026-04-05T20:00:03.000384","MEAN_MOTION":15.80821827,"ECCENTRICITY":0.0001809,"INCLINATION":53.1583,"RA_OF_ASC_NODE":201.0794,"ARG_OF_PERICENTER":35.6694,"MEAN_ANOMALY":90.7971,"EPHEMERIS_TYPE":0,"CLASSIFICATION_TYPE":"U","NORAD_CAT_ID":68283,"ELEMENT_SET_NO":999,"REV_AT_EPOCH":399,"BSTAR":0.00043716,"MEAN_MOTION_DOT":0.00086247,"MEAN_MOTION_DDOT":0},{"OBJECT_NAME":"STARLINK-37159","OBJECT_ID":"2026-055Y","EPOCH":"2026-04-05T20:00:03.000384","MEAN_MOTION":15.80809427,"ECCENTRICITY":8.0e-5,"INCLINATION":53.1584,"RA_OF_ASC_NODE":201.0705,"ARG_OF_PERICENTER":32.6562,"MEAN_ANOMALY":98.0862,"EPHEMERIS_TYPE":0,"CLASSIFICATION_TYPE":"U","NORAD_CAT_ID":68284,"ELEMENT_SET_NO":999,"REV_AT_EPOCH":399,"BSTAR":0.0005593,"MEAN_MOTION_DOT":0.00110788,"MEAN_MOTION_DDOT":0}]
